AETHER-2                
1 58299U 23174AV  26068.71793741  .00008341  00000+0  26166-3 0  9990
2 58299  97.3931 151.9008 0008630 139.5247 220.6639 15.33264165129982
STARLINK-35092          
1 65342U 25189V   26068.58420012  .00037187  00000+0  12608-2 0  9993
2 65342  53.1604 207.0206 0000949  87.1219 272.9890 15.30215946 31005
